{
  "type": "FeatureCollection",
  "features": [
    {
      "type": "Feature",
      "properties": {
        "norad_id": 24946,
        "name": "IRIDIUM 33",
        "group": "iridium-33-debris",
        "lat": -65.39740235042588,
        "lon": 57.1773248565239,
        "alt_km": 784.9647844932115,
        "timestamp": "2025-12-20T03:42:47.778664+00:00",
        "meta_object_name": "IRIDIUM 33",
        "meta_object_id": "1997-051C",
        "meta_epoch": "2025-12-19T11:17:03.474240",
        "meta_mean_motion": 14.35041894,
        "meta_eccentricity": 0.0007833,
        "meta_inclination": 86.3867,
        "meta_ra_of_asc_node": 65.3967,
        "meta_arg_of_pericenter": 177.5382,
        "meta_mean_anomaly": 182.5855,
        "meta_ephemeris_type": 0,
        "meta_classification_type": "U",
        "meta_norad_cat_id": 24946,
        "meta_element_set_no": 999,
        "meta_rev_at_epoch": 47931,
        "meta_bstar": 8.767e-05,
        "meta_mean_motion_dot": 2.7e-06,
        "meta_mean_motion_ddot": 0,
        "tle_line1": "1 24946U 97051C   25353.47017910  .00000270  00000+0  87670-4 0  9994",
        "tle_line2": "2 24946  86.3867  65.3967 0007833 177.5382 182.5855 14.35041894479312"
      },
      "geometry": {
        "type": "Point",
        "coordinates": [
          57.1773248565239,
          -65.39740235042588
        ]
      }
    },
    {
      "type": "Feature",
      "properties": {
        "norad_id": 33773,
        "name": "IRIDIUM 33 DEB",
        "group": "iridium-33-debris",
        "lat": 69.13312151299765,
        "lon": -132.0578409805349,
        "alt_km": 732.0664728288484,
        "timestamp": "2025-12-20T03:42:47.778705+00:00",
        "meta_object_name": "IRIDIUM 33 DEB",
        "meta_object_id": "1997-051L",
        "meta_epoch": "2025-12-19T15:33:20.490048",
        "meta_mean_motion": 14.43270673,
        "meta_eccentricity": 0.0013055,
        "meta_inclination": 86.4003,
        "meta_ra_of_asc_node": 57.662,
        "meta_arg_of_pericenter": 126.3635,
        "meta_mean_anomaly": 233.8773,
        "meta_ephemeris_type": 0,
        "meta_classification_type": "U",
        "meta_norad_cat_id": 33773,
        "meta_element_set_no": 999,
        "meta_rev_at_epoch": 88447,
        "meta_bstar": 0.00020843,
        "meta_mean_motion_dot": 7.22e-06,
        "meta_mean_motion_ddot": 0,
        "tle_line1": "1 33773U 97051L   25353.64815382  .00000722  00000+0  20843-3 0  9990",
        "tle_line2": "2 33773  86.4003  57.6620 0013055 126.3635 233.8773 14.43270673884473"
      },
      "geometry": {
        "type": "Point",
        "coordinates": [
          -132.0578409805349,
          69.13312151299765
        ]
      }
    },
    {
      "type": "Feature",
      "properties": {
        "norad_id": 33775,
        "name": "IRIDIUM 33 DEB",
        "group": "iridium-33-debris",
        "lat": 33.3802100118392,
        "lon": -136.01399007719812,
        "alt_km": 741.2892779129306,
        "timestamp": "2025-12-20T03:42:47.778722+00:00",
        "meta_object_name": "IRIDIUM 33 DEB",
        "meta_object_id": "1997-051N",
        "meta_epoch": "2025-12-19T10:26:40.324416",
        "meta_mean_motion": 14.41481891,
        "meta_eccentricity": 0.0014937,
        "meta_inclination": 86.363,
        "meta_ra_of_asc_node": 46.695,
        "meta_arg_of_pericenter": 134.5143,
        "meta_mean_anomaly": 240.3802,
        "meta_ephemeris_type": 0,
        "meta_classification_type": "U",
        "meta_norad_cat_id": 33775,
        "meta_element_set_no": 999,
        "meta_rev_at_epoch": 88237,
        "meta_bstar": 0.00022664,
        "meta_mean_motion_dot": 7.56e-06,
        "meta_mean_motion_ddot": 0,
        "tle_line1": "1 33775U 97051N   25353.43518894  .00000756  00000+0  22664-3 0  9997",
        "tle_line2": "2 33775  86.3630  46.6950 0014937 134.5143 240.3802 14.41481891882376"
      },
      "geometry": {
        "type": "Point",
        "coordinates": [
          -136.01399007719812,
          33.3802100118392
        ]
      }
    },
    {
      "type": "Feature",
      "properties": {
        "norad_id": 33776,
        "name": "IRIDIUM 33 DEB",
        "group": "iridium-33-debris",
        "lat": -69.7296919048646,
        "lon": 67.85710671389684,
        "alt_km": 777.635899712921,
        "timestamp": "2025-12-20T03:42:47.778736+00:00",
        "meta_object_name": "IRIDIUM 33 DEB",
        "meta_object_id": "1997-051P",
        "meta_epoch": "2025-12-19T11:23:30.764832",
        "meta_mean_motion": 14.38246315,
        "meta_eccentricity": 0.0015133,
        "meta_inclination": 86.4035,
        "meta_ra_of_asc_node": 77.9477,
        "meta_arg_of_pericenter": 168.6417,
        "meta_mean_anomaly": 202.3256,
        "meta_ephemeris_type": 0,
        "meta_classification_type": "U",
        "meta_norad_cat_id": 33776,
        "meta_element_set_no": 999,
        "meta_rev_at_epoch": 88179,
        "meta_bstar": 0.00020186,
        "meta_mean_motion_dot": 6.34e-06,
        "meta_mean_motion_ddot": 0,
        "tle_line1": "1 33776U 97051P   25353.47466163  .00000634  00000+0  20186-3 0  9995",
        "tle_line2": "2 33776  86.4035  77.9477 0015133 168.6417 202.3256 14.38246315881791"
      },
      "geometry": {
        "type": "Point",
        "coordinates": [
          67.85710671389684,
          -69.7296919048646
        ]
      }
    },
    {
      "type": "Feature",
      "properties": {
        "norad_id": 33777,
        "name": "IRIDIUM 33 DEB",
        "group": "iridium-33-debris",
        "lat": -1.4173487755804446,
        "lon": -147.93213648733902,
        "alt_km": 707.2355000626194,
        "timestamp": "2025-12-20T03:42:47.778751+00:00",
        "meta_object_name": "IRIDIUM 33 DEB",
        "meta_object_id": "1997-051Q",
        "meta_epoch": "2025-12-19T03:47:07.455552",
        "meta_mean_motion": 14.5565724,
        "meta_eccentricity": 0.00056471,
        "meta_inclination": 86.3778,
        "meta_ra_of_asc_node": 32.4117,
        "meta_arg_of_pericenter": 220.5643,
        "meta_mean_anomaly": 139.5144,
        "meta_ephemeris_type": 0,
        "meta_classification_type": "U",
        "meta_norad_cat_id": 33777,
        "meta_element_set_no": 999,
        "meta_rev_at_epoch": 88627,
        "meta_bstar": 0.00061273741,
        "meta_mean_motion_dot": 2.696e-05,
        "meta_mean_motion_ddot": 0,
        "tle_line1": "1 33777U 97051Q   25353.15772518  .00002696  00000+0  61274-3 0  9998",
        "tle_line2": "2 33777  86.3778  32.4117 0005647 220.5643 139.5144 14.55657240886277"
      },
      "geometry": {
        "type": "Point",
        "coordinates": [
          -147.93213648733902,
          -1.4173487755804446
        ]
      }
    },
    {
      "type": "Feature",
      "properties": {
        "norad_id": 33850,
        "name": "IRIDIUM 33 DEB",
        "group": "iridium-33-debris",
        "lat": 34.423805036647586,
        "lon": -155.52207388497,
        "alt_km": 740.1053964476205,
        "timestamp": "2025-12-20T03:42:47.778766+00:00",
        "meta_object_name": "IRIDIUM 33 DEB",
        "meta_object_id": "1997-051T",
        "meta_epoch": "2025-12-19T12:36:52.017120",
        "meta_mean_motion": 14.42160787,
        "meta_eccentricity": 0.001286,
        "meta_inclination": 86.3412,
        "meta_ra_of_asc_node": 27.2617,
        "meta_arg_of_pericenter": 140.6772,
        "meta_mean_anomaly": 340.5456,
        "meta_ephemeris_type": 0,
        "meta_classification_type": "U",
        "meta_norad_cat_id": 33850,
        "meta_element_set_no": 999,
        "meta_rev_at_epoch": 88250,
        "meta_bstar": 0.00026229,
        "meta_mean_motion_dot": 8.83e-06,
        "meta_mean_motion_ddot": 0,
        "tle_line1": "1 33850U 97051T   25353.52560205  .00000883  00000+0  26229-3 0  9996",
        "tle_line2": "2 33850  86.3412  27.2617 0012860 140.6772 340.5456 14.42160787882504"
      },
      "geometry": {
        "type": "Point",
        "coordinates": [
          -155.52207388497,
          34.423805036647586
        ]
      }
    },
    {
      "type": "Feature",
      "properties": {
        "norad_id": 33853,
        "name": "IRIDIUM 33 DEB",
        "group": "iridium-33-debris",
        "lat": 80.81159443621308,
        "lon": 140.92689496280366,
        "alt_km": 949.9058370687635,
        "timestamp": "2025-12-20T03:42:47.778779+00:00",
        "meta_object_name": "IRIDIUM 33 DEB",
        "meta_object_id": "1997-051W",
        "meta_epoch": "2025-12-19T17:47:37.723776",
        "meta_mean_motion": 13.99098623,
        "meta_eccentricity": 0.0207211,
        "meta_inclination": 85.9997,
        "meta_ra_of_asc_node": 346.7406,
        "meta_arg_of_pericenter": 214.1992,
        "meta_mean_anomaly": 325.7563,
        "meta_ephemeris_type": 0,
        "meta_classification_type": "U",
        "meta_norad_cat_id": 33853,
        "meta_element_set_no": 999,
        "meta_rev_at_epoch": 85443,
        "meta_bstar": 0.0011335,
        "meta_mean_motion_dot": 1.989e-05,
        "meta_mean_motion_ddot": 0,
        "tle_line1": "1 33853U 97051W   25353.74140884  .00001989  00000+0  11335-2 0  9999",
        "tle_line2": "2 33853  85.9997 346.7406 0207211 214.1992 325.7563 13.99098623854437"
      },
      "geometry": {
        "type": "Point",
        "coordinates": [
          140.92689496280366,
          80.81159443621308
        ]
      }
    }
  ]
}